NORAD_CAT_ID,OBJECT_NAME,OBJECT_TYPE,EPOCH,MEAN_MOTION,ECCENTRICITY,INCLINATION,RA_OF_ASC_NODE,ARG_OF_PERICENTER,MEAN_ANOMALY,BSTAR,MEAN_MOTION_DOT,MEAN_MOTION_DDOT,TLE_LINE0,TLE_LINE1,TLE_LINE2,SEMIMAJOR_AXIS,PERIOD,APOGEE,PERIGEE,DECAYED
53909.0,STARLINK-4796,PAYLOAD,2022-11-17 22:00:00,15.731453699999998,0.0004073,53.2156,345.9992,11.6108,276.6875,0.00074959,0.00105698,0.0,0 STARLINK-4796,1 53909U 22119Z   22321.91667824  .00105698  00000-0  74959-3 0  9990,2 53909  53.2156 345.9992 0004073  11.6108 276.6875 15.73145370  1303,6728.051,91.536,352.656,347.176,0.0
53909.0,STARLINK-4796,PAYLOAD,2022-11-18 14:00:01,15.73258655,0.0004327,53.2148,342.7022,11.4635,94.6998,-0.00026836,-0.00038234,0.0,0 STARLINK-4796,1 53909U 22119Z   22322.58334491 -.00038234  00000-0 -26836-3 0  9999,2 53909  53.2148 342.7022 0004327  11.4635  94.6998 15.73258655  1303,6727.728,91.53,352.504,346.682,0.0
53909.0,STARLINK-4796,PAYLOAD,2022-11-18 20:00:01,15.73233292,0.000404,53.215,341.4634,9.5911,73.3173,-0.00028458,-0.00040449,0.0,0 STARLINK-4796,1 53909U 22119Z   22322.83334491 -.00040449  00000-0 -28458-3 0  9990,2 53909  53.2150 341.4634 0004040   9.5911  73.3173 15.73233292  9079,6727.8,91.531,352.3830000000001,346.94699999999995,0.0
53909.0,STARLINK-4796,PAYLOAD,2022-11-18 22:00:00,15.73216605,0.0004002,53.2148,341.0505,9.4324,185.7244,-3.7158e-05,-5.842e-05,0.0,0 STARLINK-4796,1 53909U 22119Z   22322.91667824 -.00005842  00000-0 -37158-4 0  9994,2 53909  53.2148 341.0505 0004002   9.4324 185.7244 15.73216605  1308,6727.848000000001,91.532,352.405,347.02,0.0
53909.0,STARLINK-4796,PAYLOAD,2022-11-19 14:00:01,15.73184997,0.000432,53.2148,337.7533,6.5228,6.5524,0.00044494,0.00062272,0.0,0 STARLINK-4796,1 53909U 22119Z   22323.58334491  .00062272  00000-0  44494-3 0  9997,2 53909  53.2148 337.7533 0004320   6.5228   6.5524 15.73184997  9188,6727.938,91.534,352.709,346.896,0.0
53909.0,STARLINK-4796,PAYLOAD,2022-11-19 20:00:01,15.73225396,0.0004058,53.215,336.5145,6.0628,343.7135,-0.0002276,-0.00032494,0.0,0 STARLINK-4796,1 53909U 22119Z   22323.83334491 -.00032494  00000-0 -22760-3 0  9992,2 53909  53.2150 336.5145 0004058   6.0628 343.7135 15.73225396  9222,6727.823,91.532,352.418,346.958,0.0
53909.0,STARLINK-4796,PAYLOAD,2022-11-19 22:00:00,15.73196312,0.0004049,53.2148,336.1018,5.6369,96.3859,0.00010425,0.00014035,0.0,0 STARLINK-4796,1 53909U 22119Z   22323.91667824  .00014035  00000-0  10425-3 0  9994,2 53909  53.2148 336.1018 0004049   5.6369  96.3859 15.73196312  1301,6727.906,91.533,352.495,347.047,0.0
53909.0,STARLINK-4796,PAYLOAD,2022-11-20 14:00:01,15.73207019,0.0004267,53.2138,332.8044,3.5188,276.3814,-0.00013165,-0.00019075,0.0,0 STARLINK-4796,1 53909U 22119Z   22324.58334491 -.00019075  00000-0 -13165-3 0  9994,2 53909  53.2138 332.8044 0004267   3.5188 276.3814 15.73207019  9340,6727.875,91.533,352.611,346.869,0.0
53909.0,STARLINK-4796,PAYLOAD,2022-11-20 22:00:00,15.731677,0.0003946,53.2139,331.1528,4.7242,4.1177,-0.00017243,-0.0002473,0.0,0 STARLINK-4796,1 53909U 22119Z   22324.91667824 -.00024730  00000-0 -17243-3 0  9995,2 53909  53.2139 331.1528 0003946   4.7242   4.1177 15.73167700  1306,6727.986999999999,91.535,352.50699999999995,347.19699999999995,0.0
53909.0,STARLINK-4796,PAYLOAD,2022-11-21 06:00:00,15.73146702,0.0004149,53.214,329.5049,8.05,89.6726,0.00019101,0.00026217,0.0,0 STARLINK-4796,1 53909U 22119Z   22325.25001157  .00026217  00000-0  19101-3 0  9999,2 53909  53.2140 329.5049 0004149   8.0500  89.6726 15.73146702  9458,6728.047,91.536,352.704,347.121,0.0
53909.0,STARLINK-4796,PAYLOAD,2022-11-21 14:00:01,15.7318588,0.0004262,53.2139,327.8556,8.2756,178.3186,0.00027286,0.00037837,0.0,0 STARLINK-4796,1 53909U 22119Z   22325.58334491  .00037837  00000-0  27286-3 0  9998,2 53909  53.2139 327.8556 0004262   8.2756 178.3186 15.73185880  1303,6727.935,91.534,352.668,346.93300000000005,0.0
53909.0,STARLINK-4796,PAYLOAD,2022-11-21 22:00:00,15.73205048,0.0004044,53.2139,326.204,9.3616,266.1656,0.00051893,0.00072882,0.0,0 STARLINK-4796,1 53909U 22119Z   22325.91667824  .00072882  00000-0  51893-3 0  9994,2 53909  53.2139 326.2040 0004044   9.3616 266.1656 15.73205048  9551,6727.880999999999,91.533,352.467,347.025,0.0
53909.0,STARLINK-4796,PAYLOAD,2022-11-22 06:00:02,15.732412300000002,0.00042,53.2137,324.5561,8.7425,355.8229,-0.00023011,-0.00032868,0.0,0 STARLINK-4796,1 53909U 22119Z   22326.25002315 -.00032868  00000-0 -23011-3 0  9993,2 53909  53.2137 324.5561 0004200   8.7425 355.8229 15.73241230  9604,6727.778,91.531,352.468,346.81699999999995,0.0
53909.0,STARLINK-4796,PAYLOAD,2022-11-22 14:00:01,15.732644699999998,0.0004238,53.2131,322.9061,5.6401,87.8827,-0.00092973,-0.00129557,0.0,0 STARLINK-4796,1 53909U 22119Z   22326.58335648 -.00129557  00000-0 -92973-3 0  9992,2 53909  53.2131 322.9061 0004238   5.6401  87.8827 15.73264470  1302,6727.7109999999975,91.529,352.42800000000005,346.725,0.0
53909.0,STARLINK-4796,PAYLOAD,2022-11-22 22:00:00,15.73130244,0.0003939,53.2132,321.2547,4.2397,178.1789,0.00060482,0.00084896,0.0,0 STARLINK-4796,1 53909U 22119Z   22326.91667824  .00084896  00000-0  60482-3 0  9997,2 53909  53.2132 321.2547 0003939   4.2397 178.1789 15.73130244  1302,6728.094,91.537,352.6090000000001,347.309,0.0
53909.0,STARLINK-4796,PAYLOAD,2022-11-23 14:00:01,15.73207548,0.0004204,53.2135,317.9571,3.0989,357.1298,-0.00023942,-0.00034119,0.0,0 STARLINK-4796,1 53909U 22119Z   22327.58334491 -.00034119  00000-0 -23942-3 0  9997,2 53909  53.2135 317.9571 0004204   3.0989 357.1298 15.73207548  9814,6727.874,91.533,352.56699999999995,346.91,0.0
53909.0,STARLINK-4796,PAYLOAD,2022-11-23 22:00:00,15.73193966,0.0004006,53.2137,316.3057,3.93,85.2217,0.00028435,0.00039476,0.0,0 STARLINK-4796,1 53909U 22119Z   22327.91667824  .00039476  00000-0  28435-3 0  9994,2 53909  53.2137 316.3057 0004006   3.9300  85.2217 15.73193966  1308,6727.9119999999975,91.534,352.473,347.082,0.0
53909.0,STARLINK-4796,PAYLOAD,2022-11-24 06:00:02,15.73189935,0.0004257,53.2134,314.6578,3.2060000000000004,174.9623,-4.5784e-05,-7.046e-05,0.0,0 STARLINK-4796,1 53909U 22119Z   22328.25002315 -.00007046  00000-0 -45784-4 0  9997,2 53909  53.2134 314.6578 0004257   3.2060 174.9623 15.73189935  9922,6727.924,91.534,352.653,346.925,0.0
53909.0,STARLINK-4796,PAYLOAD,2022-11-24 14:00:01,15.73249602,0.0004105,53.2136,313.0037,0.9391,266.0728,-0.00058264,-0.00081822,0.0,0 STARLINK-4796,1 53909U 22119Z   22328.58334491 -.00081822  00000-0 -58264-3 0  9996,2 53909  53.2136 313.0037 0004105   0.9391 266.0728 15.73249602  1301,6727.754,91.53,352.381,346.857,0.0
53909.0,STARLINK-4796,PAYLOAD,2022-11-24 22:00:00,15.73299706,0.0003765,53.2153,311.3424,350.8843,5.0737,-0.0035287,-0.0047147,0.0,0 STARLINK-4796,1 53909U 22119Z   22328.91667824 -.00471470  00000-0 -35287-2 0  9993,2 53909  53.2153 311.3424 0003765 350.8843   5.0737 15.73299706 10021,6727.611,91.527,352.009,346.9430000000001,0.0
53909.0,STARLINK-4796,PAYLOAD,2022-11-25 06:00:00,15.7307099,0.0003602,53.2167,309.6897,313.3028,131.5059,-0.0083736,-0.01052997,0.0,0 STARLINK-4796,1 53909U 22119Z   22329.25001157 -.01052997  00000-0 -83736-2 0  9994,2 53909  53.2167 309.6897 0003602 313.3028 131.5059 15.73070990 10089,6728.263000000001,91.541,352.552,347.704,0.0
53909.0,STARLINK-4796,PAYLOAD,2022-11-25 14:00:01,15.72380731,0.0003926,53.2164,308.0408,299.4837,233.5989,-0.010177,-0.01242162,0.0,0 STARLINK-4796,1 53909U 22119Z   22329.58334491 -.01242162  00000-0 -10177-1 0  9993,2 53909  53.2164 308.0408 0003926 299.4837 233.5989 15.72380731  1304,6730.232,91.581,354.73900000000015,349.455,0.0
53909.0,STARLINK-4796,PAYLOAD,2022-11-25 20:00:01,15.71683066,0.0005495,53.2168,306.8047,281.6614,227.0722,-0.0093959,-0.01108098,0.0,0 STARLINK-4796,1 53909U 22119Z   22329.83334491 -.01108098  00000-0 -93959-2 0  9990,2 53909  53.2168 306.8047 0005495 281.6614 227.0722 15.71683066 10176,6732.223000000001,91.622,357.788,350.389,0.0
53909.0,STARLINK-4796,PAYLOAD,2022-11-25 22:00:00,15.71496507,0.0006001,53.2173,306.3911,276.5068,343.9676,-0.0097172,-0.01134189,0.0,0 STARLINK-4796,1 53909U 22119Z   22329.91667824 -.01134189  00000-0 -97172-2 0  9999,2 53909  53.2173 306.3911 0006001 276.5068 343.9676 15.71496507  1300,6732.755999999999,91.632,358.662,350.581,0.0
53909.0,STARLINK-4796,PAYLOAD,2022-11-26 12:00:00,15.70060839,0.0001448,53.2172,303.5146,342.9459,338.0473,-0.010119,-0.01111303,0.0,0 STARLINK-4796,1 53909U 22119Z   22330.50001157 -.01111303  00000-0 -10119-1 0  9995,2 53909  53.2172 303.5146 0001448 342.9459 338.0473 15.70060839 10270,6736.86,91.716,359.7,357.749,0.0
53909.0,STARLINK-4796,PAYLOAD,2022-11-26 14:00:01,15.69870829,0.0005528,53.2166,303.1062,271.027,161.218,-0.010421,-0.01135014,0.0,0 STARLINK-4796,1 53909U 22119Z   22330.58334491 -.01135014  00000-0 -10421-1 0  9994,2 53909  53.2166 303.1062 0005528 271.0270 161.2180 15.69870829  1303,6737.404,91.727,362.99300000000005,355.5440000000001,0.0
53909.0,STARLINK-4796,PAYLOAD,2022-11-26 22:00:00,15.69063668,0.0003809,53.2164,301.4654,280.0405,236.6213,-0.010883,-0.01162666,0.0,0 STARLINK-4796,1 53909U 22119Z   22330.91667824 -.01162666  00000-0 -10883-1 0  9995,2 53909  53.2164 301.4654 0003809 280.0405 236.6213 15.69063668  1308,6739.714,91.774,364.146,359.01199999999994,0.0
53909.0,STARLINK-4796,PAYLOAD,2022-11-27 06:00:00,15.6827875,8.71e-05,53.2167,299.8287,246.4142,353.6718,-0.011597,-0.01194362,0.0,0 STARLINK-4796,1 53909U 22119Z   22331.25001157 -.01194362  00000-0 -11597-1 0  9995,2 53909  53.2167 299.8287 0000871 246.4142 353.6718 15.68278750 10391,6741.9630000000025,91.82,364.415,363.24,0.0
53909.0,STARLINK-4796,PAYLOAD,2022-11-27 14:00:01,15.67467932,7.709999999999999e-05,53.2166,298.1903,75.2508,247.3012,-0.012059,-0.01200448,0.0,0 STARLINK-4796,1 53909U 22119Z   22331.58334491 -.01200448  00000-0 -12059-1 0  9998,2 53909  53.2166 298.1903 0000771  75.2508 247.3012 15.67467932  1308,6744.2869999999975,91.868,366.672,365.632,0.0
